PLEIADES 1A             
1 38012U 11076F   26195.98136389 -.00000121  00000+0 -16249-4 0  9990
2 38012  98.1976 270.7094 0001692  79.8940 358.8427 14.58545777776044
PLEIADES 1B             
1 39019U 12068A   26196.00035141  .00000076  00000+0  26127-4 0  9991
2 39019  98.1948 270.6675 0001586  78.4689 281.6689 14.58533997724904
